{
  "type": "FeatureCollection",
  "features": [
    {
      "type": "Feature",
      "properties": {
        "norad_id": 34121,
        "name": "COSMOS 2251 DEB",
        "group": "cosmos-2251-debris",
        "lat": -22.794309162414407,
        "lon": -72.26908618855273,
        "alt_km": 962.4662224120257,
        "timestamp": "2025-12-10T14:53:37.481784+00:00",
        "meta_object_name": "COSMOS 2251 DEB",
        "meta_object_id": "1993-036KS",
        "meta_epoch": "2025-12-10T07:05:20.741280",
        "meta_mean_motion": 13.91915567,
        "meta_eccentricity": 0.02401098,
        "meta_inclination": 73.9929,
        "meta_ra_of_asc_node": 101.3592,
        "meta_arg_of_pericenter": 307.3322,
        "meta_mean_anomaly": 70.136,
        "meta_ephemeris_type": 0,
        "meta_classification_type": "U",
        "meta_norad_cat_id": 34121,
        "meta_element_set_no": 999,
        "meta_rev_at_epoch": 85091,
        "meta_bstar": 0.0016667316,
        "meta_mean_motion_dot": 2.664e-05,
        "meta_mean_motion_ddot": 0,
        "tle_line1": "1 34121U 93036KS  25344.29537895  .00002664  00000+0  16667-2 0  9993",
        "tle_line2": "2 34121  73.9929 101.3592 0240109 307.3322  70.1360 13.91915567850916"
      },
      "geometry": {
        "type": "Point",
        "coordinates": [
          -72.26908618855273,
          -22.794309162414407
        ]
      }
    },
    {
      "type": "Feature",
      "properties": {
        "norad_id": 34122,
        "name": "COSMOS 2251 DEB",
        "group": "cosmos-2251-debris",
        "lat": -70.45234767076238,
        "lon": -3.5595278140852735,
        "alt_km": 714.7563861233984,
        "timestamp": "2025-12-10T14:53:37.481793+00:00",
        "meta_object_name": "COSMOS 2251 DEB",
        "meta_object_id": "1993-036KT",
        "meta_epoch": "2025-12-10T02:45:36.180576",
        "meta_mean_motion": 14.64991975,
        "meta_eccentricity": 0.00841771,
        "meta_inclination": 74.036,
        "meta_ra_of_asc_node": 123.6835,
        "meta_arg_of_pericenter": 21.255,
        "meta_mean_anomaly": 92.855,
        "meta_ephemeris_type": 0,
        "meta_classification_type": "U",
        "meta_norad_cat_id": 34122,
        "meta_element_set_no": 999,
        "meta_rev_at_epoch": 88646,
        "meta_bstar": 0.0016537882,
        "meta_mean_motion_dot": 9.315e-05,
        "meta_mean_motion_ddot": 0,
        "tle_line1": "1 34122U 93036KT  25344.11500209  .00009315  00000+0  16538-2 0  9991",
        "tle_line2": "2 34122  74.0360 123.6835 0084177  21.2550  92.8550 14.64991975886460"
      },
      "geometry": {
        "type": "Point",
        "coordinates": [
          -3.5595278140852735,
          -70.45234767076238
        ]
      }
    },
    {
      "type": "Feature",
      "properties": {
        "norad_id": 34127,
        "name": "COSMOS 2251 DEB",
        "group": "cosmos-2251-debris",
        "lat": 61.207774610018824,
        "lon": 78.7541287980228,
        "alt_km": 862.6566432052759,
        "timestamp": "2025-12-10T14:53:37.481802+00:00",
        "meta_object_name": "COSMOS 2251 DEB",
        "meta_object_id": "1993-036KY",
        "meta_epoch": "2025-12-10T04:39:56.961792",
        "meta_mean_motion": 14.31501801,
        "meta_eccentricity": 0.01149213,
        "meta_inclination": 74.179,
        "meta_ra_of_asc_node": 48.4635,
        "meta_arg_of_pericenter": 249.1574,
        "meta_mean_anomaly": 141.1493,
        "meta_ephemeris_type": 0,
        "meta_classification_type": "U",
        "meta_norad_cat_id": 34127,
        "meta_element_set_no": 999,
        "meta_rev_at_epoch": 86735,
        "meta_bstar": 0.0025855859,
        "meta_mean_motion_dot": 7.369e-05,
        "meta_mean_motion_ddot": 0,
        "tle_line1": "1 34127U 93036KY  25344.19440928  .00007369  00000+0  25856-2 0  9995",
        "tle_line2": "2 34127  74.1790  48.4635 0114921 249.1574 141.1493 14.31501801867353"
      },
      "geometry": {
        "type": "Point",
        "coordinates": [
          78.7541287980228,
          61.207774610018824
        ]
      }
    },
    {
      "type": "Feature",
      "properties": {
        "norad_id": 34128,
        "name": "COSMOS 2251 DEB",
        "group": "cosmos-2251-debris",
        "lat": 70.25511357687998,
        "lon": 67.97153365204898,
        "alt_km": 544.4607878541601,
        "timestamp": "2025-12-10T14:53:37.481811+00:00",
        "meta_object_name": "COSMOS 2251 DEB",
        "meta_object_id": "1993-036KZ",
        "meta_epoch": "2025-12-10T07:00:14.386752",
        "meta_mean_motion": 15.00965109,
        "meta_eccentricity": 0.00262565,
        "meta_inclination": 73.9998,
        "meta_ra_of_asc_node": 301.718,
        "meta_arg_of_pericenter": 54.4419,
        "meta_mean_anomaly": 71.4284,
        "meta_ephemeris_type": 0,
        "meta_classification_type": "U",
        "meta_norad_cat_id": 34128,
        "meta_element_set_no": 999,
        "meta_rev_at_epoch": 89130,
        "meta_bstar": 0.0029278907,
        "meta_mean_motion_dot": 0.00037786,
        "meta_mean_motion_ddot": 0,
        "tle_line1": "1 34128U 93036KZ  25344.29183318  .00037786  00000+0  29279-2 0  9993",
        "tle_line2": "2 34128  73.9998 301.7180 0026256  54.4419  71.4284 15.00965109891306"
      },
      "geometry": {
        "type": "Point",
        "coordinates": [
          67.97153365204898,
          70.25511357687998
        ]
      }
    },
    {
      "type": "Feature",
      "properties": {
        "norad_id": 34129,
        "name": "COSMOS 2251 DEB",
        "group": "cosmos-2251-debris",
        "lat": -30.98566292235717,
        "lon": 173.57207018970868,
        "alt_km": 667.8676560645135,
        "timestamp": "2025-12-10T14:53:37.481819+00:00",
        "meta_object_name": "COSMOS 2251 DEB",
        "meta_object_id": "1993-036LA",
        "meta_epoch": "2025-12-10T00:55:15.088512",
        "meta_mean_motion": 14.7565571,
        "meta_eccentricity": 0.00328285,
        "meta_inclination": 74.0356,
        "meta_ra_of_asc_node": 344.8118,
        "meta_arg_of_pericenter": 67.2233,
        "meta_mean_anomaly": 293.2403,
        "meta_ephemeris_type": 0,
        "meta_classification_type": "U",
        "meta_norad_cat_id": 34129,
        "meta_element_set_no": 999,
        "meta_rev_at_epoch": 61258,
        "meta_bstar": 0.001825901,
        "meta_mean_motion_dot": 0.00012573,
        "meta_mean_motion_ddot": 0,
        "tle_line1": "1 34129U 93036LA  25344.03836908  .00012573  00000+0  18259-2 0  9999",
        "tle_line2": "2 34129  74.0356 344.8118 0032828  67.2233 293.2403 14.75655710612587"
      },
      "geometry": {
        "type": "Point",
        "coordinates": [
          173.57207018970868,
          -30.98566292235717
        ]
      }
    },
    {
      "type": "Feature",
      "properties": {
        "norad_id": 34136,
        "name": "COSMOS 2251 DEB",
        "group": "cosmos-2251-debris",
        "lat": -25.431171860454473,
        "lon": 38.980949238741985,
        "alt_km": 692.1036891017584,
        "timestamp": "2025-12-10T14:53:37.481828+00:00",
        "meta_object_name": "COSMOS 2251 DEB",
        "meta_object_id": "1993-036LH",
        "meta_epoch": "2025-12-10T07:13:05.897280",
        "meta_mean_motion": 14.80052988,
        "meta_eccentricity": 0.008599,
        "meta_inclination": 74.0208,
        "meta_ra_of_asc_node": 47.4424,
        "meta_arg_of_pericenter": 171.0473,
        "meta_mean_anomaly": 258.9457,
        "meta_ephemeris_type": 0,
        "meta_classification_type": "U",
        "meta_norad_cat_id": 34136,
        "meta_element_set_no": 999,
        "meta_rev_at_epoch": 89974,
        "meta_bstar": 0.00073708988,
        "meta_mean_motion_dot": 5.915e-05,
        "meta_mean_motion_ddot": 0,
        "tle_line1": "1 34136U 93036LH  25344.30076270  .00005915  00000+0  73709-3 0  9999",
        "tle_line2": "2 34136  74.0208  47.4424 0085990 171.0473 258.9457 14.80052988899741"
      },
      "geometry": {
        "type": "Point",
        "coordinates": [
          38.980949238741985,
          -25.431171860454473
        ]
      }
    },
    {
      "type": "Feature",
      "properties": {
        "norad_id": 34139,
        "name": "COSMOS 2251 DEB",
        "group": "cosmos-2251-debris",
        "lat": -32.8891892891084,
        "lon": 88.77356922958663,
        "alt_km": 714.8573355760727,
        "timestamp": "2025-12-10T14:53:37.481837+00:00",
        "meta_object_name": "COSMOS 2251 DEB",
        "meta_object_id": "1993-036LL",
        "meta_epoch": "2025-12-10T04:43:35.266080",
        "meta_mean_motion": 14.59005201,
        "meta_eccentricity": 0.00425472,
        "meta_inclination": 74.031,
        "meta_ra_of_asc_node": 258.9095,
        "meta_arg_of_pericenter": 330.4044,
        "meta_mean_anomaly": 180.1161,
        "meta_ephemeris_type": 0,
        "meta_classification_type": "U",
        "meta_norad_cat_id": 34139,
        "meta_element_set_no": 999,
        "meta_rev_at_epoch": 88112,
        "meta_bstar": 0.0022458073,
        "meta_mean_motion_dot": 0.00010666,
        "meta_mean_motion_ddot": 0,
        "tle_line1": "1 34139U 93036LL  25344.19693595  .00010666  00000+0  22458-2 0  9997",
        "tle_line2": "2 34139  74.0310 258.9095 0042547 330.4044 180.1161 14.59005201881120"
      },
      "geometry": {
        "type": "Point",
        "coordinates": [
          88.77356922958663,
          -32.8891892891084
        ]
      }
    }
  ]
}